NORAD_CAT_ID,OBJECT_NAME,OBJECT_TYPE,EPOCH,MEAN_MOTION,ECCENTRICITY,INCLINATION,RA_OF_ASC_NODE,ARG_OF_PERICENTER,MEAN_ANOMALY,BSTAR,MEAN_MOTION_DOT,MEAN_MOTION_DDOT,TLE_LINE0,TLE_LINE1,TLE_LINE2,SEMIMAJOR_AXIS,PERIOD,APOGEE,PERIGEE,DECAYED
52542.0,STARLINK-3937,PAYLOAD,2022-07-18 16:00:00,15.0883383,0.0001721999999999,53.2163,339.8131,55.5873,55.5966,-0.00022283,-3.832e-05,0.0,0 STARLINK-3937,1 52542U 22051K   22199.66667824 -.00003832  00000-0 -22283-3 0  9994,2 52542  53.2163 339.8131 0001722  55.5873  55.5966 15.08833830 10728,6917.899,95.438,540.956,538.573,0.0
52542.0,STARLINK-3937,PAYLOAD,2022-07-18 22:00:00,15.08831594,0.0001720999999999,53.2161,338.6909,51.5476,338.3195,0.0014084,0.00022193,0.0,0 STARLINK-3937,1 52542U 22051K   22199.91667824  .00022193  00000-0  14084-2 0  9990,2 52542  53.2161 338.6909 0001721  51.5476 338.3195 15.08831594  1305,6917.906,95.438,540.962,538.581,0.0
52542.0,STARLINK-3937,PAYLOAD,2022-07-19 14:00:01,15.08852965,0.0001821,53.2163,335.6977,57.5363,355.5382,-0.0018772,-0.00030051,0.0,0 STARLINK-3937,1 52542U 22051K   22200.58334491 -.00030051  00000-0 -18772-2 0  9999,2 52542  53.2163 335.6977 0001821  57.5363 355.5382 15.08852965 10866,6917.840999999999,95.437,540.965,538.446,0.0
52542.0,STARLINK-3937,PAYLOAD,2022-07-19 22:00:00,15.08856815,0.0001873,53.2164,334.2044,51.3484,13.3141,-0.0022038,-0.00035207,0.0,0 STARLINK-3937,1 52542U 22051K   22200.91667824 -.00035207  00000-0 -22038-2 0  9993,2 52542  53.2164 334.2044 0001873  51.3484  13.3141 15.08856815  1309,6917.829000000002,95.436,540.99,538.398,0.0
52542.0,STARLINK-3937,PAYLOAD,2022-07-20 06:00:00,15.08816081,0.0001659,53.2164,332.7034,57.45,18.8526,0.0041178,0.00065816,0.0,0 STARLINK-3937,1 52542U 22051K   22201.25001157  .00065816  00000-0  41178-2 0  9995,2 52542  53.2164 332.7034 0001659  57.4500  18.8526 15.08816081 10969,6917.954000000002,95.439,540.966,538.6709999999998,0.0
52542.0,STARLINK-3937,PAYLOAD,2022-07-20 14:00:01,15.08842261,0.0001893,53.2164,331.2084,56.2726,31.6143,-0.0013675999999999,-0.00021989,0.0,0 STARLINK-3937,1 52542U 22051K   22201.58334491 -.00021989  00000-0 -13676-2 0  9998,2 52542  53.2164 331.2084 0001893  56.2726  31.6143 15.08842261  1300,6917.873000000001,95.437,541.048,538.429,0.0
52542.0,STARLINK-3937,PAYLOAD,2022-07-20 22:00:01,15.08847739,0.0001902,53.2164,329.7121,52.272,47.2537,-0.0022195,-0.00035446,0.0,0 STARLINK-3937,1 52542U 22051K   22201.91668981 -.00035446  00000-0 -22195-2 0  9998,2 52542  53.2164 329.7121 0001902  52.2720  47.2537 15.08847739  1300,6917.857,95.437,541.038,538.406,0.0
52542.0,STARLINK-3937,PAYLOAD,2022-07-21 14:00:01,15.08829245,0.000184,53.2167,326.7192,54.6787,67.9973,-0.00085103,-0.00013803,0.0,0 STARLINK-3937,1 52542U 22051K   22202.58335648 -.00013803  00000-0 -85103-3 0  9995,2 52542  53.2167 326.7192 0001840  54.6787  67.9973 15.08829245  1303,6917.913000000001,95.438,541.0509999999998,538.505,0.0
52542.0,STARLINK-3937,PAYLOAD,2022-07-21 22:00:00,15.08837317,0.0001851999999999,53.2166,325.2229,51.6773,82.5088,-1.5457e-05,-5.34e-06,0.0,0 STARLINK-3937,1 52542U 22051K   22202.91667824 -.00000534  00000-0 -15457-4 0  9999,2 52542  53.2166 325.2229 0001852  51.6773  82.5088 15.08837317  1301,6917.889,95.438,541.035,538.472,0.0
52542.0,STARLINK-3937,PAYLOAD,2022-07-22 06:00:00,15.08823355,0.0001694,53.2169,323.7249,58.4633,87.3215,0.0031076999999999,0.00049496,0.0,0 STARLINK-3937,1 52542U 22051K   22203.25001157  .00049496  00000-0  31077-2 0  9990,2 52542  53.2169 323.7249 0001694  58.4633  87.3215 15.08823355  1305,6917.931,95.439,540.9680000000002,538.624,0.0
52542.0,STARLINK-3937,PAYLOAD,2022-07-22 22:00:00,15.08871977,0.0001757,53.2166,320.7334,50.4215,118.5777,-0.0028186,-0.00044906,0.0,0 STARLINK-3937,1 52542U 22051K   22203.91667824 -.00044906  00000-0 -28186-2 0  9992,2 52542  53.2166 320.7334 0001757  50.4215 118.5777 15.08871977 11362,6917.783,95.436,540.863,538.432,0.0
52542.0,STARLINK-3937,PAYLOAD,2022-07-23 14:00:01,15.08830826,0.000179,53.2168,317.7409,54.0462,138.2242,-0.00071466,-0.00011641,0.0,0 STARLINK-3937,1 52542U 22051K   22204.58335648 -.00011641  00000-0 -71466-3 0  9992,2 52542  53.2168 317.7409 0001790  54.0462 138.2242 15.08830826  1301,6917.908,95.438,541.012,538.535,0.0
52542.0,STARLINK-3937,PAYLOAD,2022-07-23 16:00:00,15.0881547,0.0001848,53.217,317.3684,52.8251,232.2806,0.0014689,0.00023151,0.0,0 STARLINK-3937,1 52542U 22051K   22204.66667824  .00023151  00000-0  14689-2 0  9995,2 52542  53.2170 317.3684 0001848  52.8251 232.2806 15.08815470 11480,6917.955,95.439,541.099,538.5419999999998,0.0
52542.0,STARLINK-3937,PAYLOAD,2022-07-23 22:00:00,15.08844979,0.0001756,53.2164,316.2441,53.5442,150.2354,-0.001088,-0.00017564,0.0,0 STARLINK-3937,1 52542U 22051K   22204.91667824 -.00017564  00000-0 -10880-2 0  9995,2 52542  53.2164 316.2441 0001756  53.5442 150.2354 15.08844979  1303,6917.865,95.437,540.945,538.515,0.0
52542.0,STARLINK-3937,PAYLOAD,2022-07-24 14:00:01,15.08853401,0.0001729,53.2165,313.2519,54.8855,172.076,-0.0026081,-0.00041572,0.0,0 STARLINK-3937,1 52542U 22051K   22205.58334491 -.00041572  00000-0 -26081-2 0  9996,2 52542  53.2165 313.2519 0001729  54.8855 172.0760 15.08853401  1302,6917.839,95.437,540.901,538.508,0.0
52542.0,STARLINK-3937,PAYLOAD,2022-07-24 22:00:00,15.08841824,0.0001621999999999,53.2162,311.755,52.0601,186.4964,-0.0020607,-0.00032936,0.0,0 STARLINK-3937,1 52542U 22051K   22205.91667824 -.00032936  00000-0 -20607-2 0  9994,2 52542  53.2162 311.7550 0001622  52.0601 186.4964 15.08841824  1309,6917.875,95.437,540.862,538.618,0.0
52542.0,STARLINK-3937,PAYLOAD,2022-07-25 06:00:00,15.08814509,0.0001525,53.2162,310.2576,59.61600000000001,190.5217,0.0021644,0.00034302,0.0,0 STARLINK-3937,1 52542U 22051K   22206.25001157  .00034302  00000-0  21644-2 0  9992,2 52542  53.2162 310.2576 0001525  59.6160 190.5217 15.08814509 11720,6917.958000000001,95.439,540.878,538.768,0.0
52542.0,STARLINK-3937,PAYLOAD,2022-07-25 14:00:01,15.08828233,0.0001689,53.2162,308.763,53.174,208.5442,3.8771e-05,3.29e-06,0.0,0 STARLINK-3937,1 52542U 22051K   22206.58334491  .00000329  00000-0  38771-4 0  9991,2 52542  53.2162 308.7630 0001689  53.1740 208.5442 15.08828233  1309,6917.916,95.438,540.95,538.613,0.0
52542.0,STARLINK-3937,PAYLOAD,2022-07-25 22:00:00,15.08852388,0.0001629,53.216,307.266,52.0727,221.222,-0.0019876,-0.00031792,0.0,0 STARLINK-3937,1 52542U 22051K   22206.91667824 -.00031792  00000-0 -19876-2 0  9990,2 52542  53.2160 307.2660 0001629  52.0727 221.2220 15.08852388 11823,6917.843000000003,95.437,540.8340000000002,538.581,0.0
52542.0,STARLINK-3937,PAYLOAD,2022-07-26 14:00:01,15.08840139,0.0001744,53.2161,304.2741,52.363,244.1258,0.00031147,4.672e-05,0.0,0 STARLINK-3937,1 52542U 22051K   22207.58334491  .00004672  00000-0  31147-3 0  9996,2 52542  53.2161 304.2741 0001744  52.3630 244.1258 15.08840139  1303,6917.88,95.438,540.951,538.538,0.0
52542.0,STARLINK-3937,PAYLOAD,2022-07-26 22:00:00,15.08868226,0.000167,53.216,302.777,51.2066,256.8773,-0.0020382,-0.00032605,0.0,0 STARLINK-3937,1 52542U 22051K   22207.91667824 -.00032605  00000-0 -20382-2 0  9999,2 52542  53.2160 302.7770 0001670  51.2066 256.8773 15.08868226  1305,6917.794,95.436,540.814,538.504,0.0
52542.0,STARLINK-3937,PAYLOAD,2022-07-27 14:00:01,15.08830258,0.0001737,53.2163,299.7852,49.2283,282.0008,0.00054196,8.346e-05,0.0,0 STARLINK-3937,1 52542U 22051K   22208.58334491  .00008346  00000-0  54196-3 0  9998,2 52542  53.2163 299.7852 0001737  49.2283 282.0008 15.08830258  1302,6917.91,95.438,540.977,538.5740000000002,0.0
52542.0,STARLINK-3937,PAYLOAD,2022-07-27 16:00:00,15.08816172,0.0001726,53.2163,299.4114,47.8584,16.2718,0.0026991999999999,0.00042904,0.0,0 STARLINK-3937,1 52542U 22051K   22208.66667824  .00042904  00000-0  26992-2 0  9996,2 52542  53.2163 299.4114 0001726  47.8584  16.2718 15.08816172 12087,6917.953,95.439,541.012,538.624,0.0
52542.0,STARLINK-3937,PAYLOAD,2022-07-27 22:00:00,15.08860256,0.0001656,53.2162,298.288,48.4675,294.3482,-0.0019648,-0.00031439,0.0,0 STARLINK-3937,1 52542U 22051K   22208.91667824 -.00031439  00000-0 -19648-2 0  9997,2 52542  53.2162 298.2880 0001656  48.4675 294.3482 15.08860256  1305,6917.818,95.436,540.8290000000002,538.538,0.0
52542.0,STARLINK-3937,PAYLOAD,2022-07-28 08:00:01,15.08863417,0.0001629,53.2165,296.4172,53.4222,33.8919,-0.00095918,-0.00015531,0.0,0 STARLINK-3937,1 52542U 22051K   22209.33334491 -.00015531  00000-0 -95918-3 0  9995,2 52542  53.2165 296.4172 0001629  53.4222  33.8919 15.08863417 12187,6917.809,95.436,540.8009999999998,538.547,0.0
52542.0,STARLINK-3937,PAYLOAD,2022-07-28 14:00:01,15.08849886,0.0001769,53.2165,295.2963,47.8518,318.1771,3.128e-05,2.1e-06,0.0,0 STARLINK-3937,1 52542U 22051K   22209.58334491  .00000210  00000-0  31280-4 0  9991,2 52542  53.2165 295.2963 0001769  47.8518 318.1771 15.08849886  1303,6917.85,95.437,540.939,538.491,0.0
52542.0,STARLINK-3937,PAYLOAD,2022-07-28 22:00:00,15.08864665,0.0001631,53.2164,293.7989,46.8098,330.8294,-0.0033732,-0.0005361,0.0,0 STARLINK-3937,1 52542U 22051K   22209.91667824 -.00053610  00000-0 -33732-2 0  9993,2 52542  53.2164 293.7989 0001631  46.8098 330.8294 15.08864665  1306,6917.805,95.436,540.798,538.5419999999998,0.0
52542.0,STARLINK-3937,PAYLOAD,2022-07-29 14:00:01,15.08828613,0.0001724,53.2165,290.8074,45.4314,355.3985,0.00096518,0.00015101,0.0,0 STARLINK-3937,1 52542U 22051K   22210.58334491  .00015101  00000-0  96518-3 0  9992,2 52542  53.2165 290.8074 0001724  45.4314 355.3985 15.08828613 12370,6917.915,95.438,540.9730000000002,538.5880000000002,0.0
52542.0,STARLINK-3937,PAYLOAD,2022-07-29 22:00:00,15.08855071,0.0001603,53.2163,289.3098,46.708,5.7103,-0.0016727,-0.00026821,0.0,0 STARLINK-3937,1 52542U 22051K   22210.91667824 -.00026821  00000-0 -16727-2 0  9994,2 52542  53.2163 289.3098 0001603  46.7080   5.7103 15.08855071  1304,6917.834,95.437,540.808,538.59,0.0
